{
    "links": {
        "self": "http://www.neowsapp.com/rest/v1/neo/3826769?api_key=iIulBulltgU6a56xZRHN4H3l9WmuAYTsLGpBGhQ2"
    },
    "id": "3826769",
    "neo_reference_id": "3826769",
    "name": "(2018 PH21)",
    "designation": "2018 PH21",
    "nasa_jpl_url": "http://ssd.jpl.nasa.gov/sbdb.cgi?sstr=3826769",
    "absolute_magnitude_h": 24.1,
    "estimated_diameter": {
        "kilometers": {
            "estimated_diameter_min": 0.040230458,
            "estimated_diameter_max": 0.0899580388
        },
        "meters": {
            "estimated_diameter_min": 40.2304579834,
            "estimated_diameter_max": 89.9580388169
        },
        "miles": {
            "estimated_diameter_min": 0.0249980399,
            "estimated_diameter_max": 0.0558973165
        },
        "feet": {
            "estimated_diameter_min": 131.9896957704,
            "estimated_diameter_max": 295.1379320721
        }
    },
    "is_potentially_hazardous_asteroid": false,
    "close_approach_data": [
        {
            "close_approach_date": "2018-08-30",
            "close_approach_date_full": "2018-Aug-30 06:50",
            "epoch_date_close_approach": 1535611800000,
            "relative_velocity": {
                "kilometers_per_second": "16.1992619465",
                "kilometers_per_hour": "58317.3430074875",
                "miles_per_hour": "36236.1290481802"
            },
            "miss_distance": {
                "astronomical": "0.0670164231",
                "lunar": "26.0693885859",
                "kilometers": "10025514.150778797",
                "miles": "6229565.6244975186"
            },
            "orbiting_body": "Earth"
        }
    ],
    "orbital_data": {
        "orbit_id": "1",
        "orbit_determination_date": "2018-08-14 11:12:04",
        "first_observation_date": "2018-08-11",
        "last_observation_date": "2018-08-14",
        "data_arc_in_days": 3,
        "observations_used": 15,
        "orbit_uncertainty": "9",
        "minimum_orbit_intersection": ".0186922",
        "jupiter_tisserand_invariant": "3.647",
        "epoch_osculation": "2458342.5",
        "eccentricity": ".6518684150058034",
        "semi_major_axis": "1.906492570951988",
        "inclination": "1.796593182607064",
        "ascending_node_longitude": "188.074894924472",
        "orbital_period": "961.5040166091781",
        "perihelion_distance": ".6637102805051764",
        "perihelion_argument": "226.3292132400674",
        "aphelion_distance": "3.1492748613988",
        "perihelion_time": "2458407.772715053987",
        "mean_anomaly": "335.5610200128924",
        "mean_motion": ".3744134125092573",
        "equinox": "J2000",
        "orbit_class": {
            "orbit_class_type": "APO",
            "orbit_class_description": "Near-Earth asteroid orbits which cross the Earth’s orbit similar to that of 1862 Apollo",
            "orbit_class_range": "a (semi-major axis) > 1.0 AU; q (perihelion) < 1.017 AU"
        }
    },
    "is_sentry_object": false
}